{
 "generated_at": "2026-06-14T08:41:33Z",
 "sources": [
  {
   "name": "CelesTrak",
   "url": "https://celestrak.org/NORAD/elements/",
   "license": "frei verfügbar; Attribution. Ursprünglich USSPACECOM/Space-Track."
  },
  {
   "name": "GCAT (J. McDowell, planet4589.org)",
   "url": "https://planet4589.org/space/gcat/",
   "license": "CC-BY 4.0"
  }
 ],
 "satellites": [
  {
   "norad": 58648,
   "name": "TIANMU-1 14",
   "intl": "2023-205D",
   "group": "weather",
   "gcat": {
    "class": "B",
    "category": "MET",
    "owner": "TIANMU",
    "state": "CN"
   },
   "omm": {
    "OBJECT_NAME": "TIANMU-1 14",
    "OBJECT_ID": "2023-205D",
    "EPOCH": "2026-06-13T23:03:51.651072",
    "MEAN_MOTION": 15.26828317,
    "ECCENTRICITY": 0.00072568,
    "INCLINATION": 97.3397,
    "RA_OF_ASC_NODE": 185.7811,
    "ARG_OF_PERICENTER": 357.8569,
    "MEAN_ANOMALY": 2.2638,
    "EPHEMERIS_TYPE": 0,
    "CLASSIFICATION_TYPE": "U",
    "NORAD_CAT_ID": 58648,
    "ELEMENT_SET_NO": 999,
    "REV_AT_EPOCH": 13701,
    "BSTAR": 0.00022666282,
    "MEAN_MOTION_DOT": 0.00005907,
    "MEAN_MOTION_DDOT": 0
   }
  },
  {
   "norad": 58700,
   "name": "TIANMU-1 15",
   "intl": "2024-004A",
   "group": "weather",
   "gcat": {
    "class": "B",
    "category": "MET",
    "owner": "TIANMU",
    "state": "CN"
   },
   "omm": {
    "OBJECT_NAME": "TIANMU-1 15",
    "OBJECT_ID": "2024-004A",
    "EPOCH": "2026-06-13T22:52:37.719840",
    "MEAN_MOTION": 15.269941,
    "ECCENTRICITY": 0.00070274,
    "INCLINATION": 97.4662,
    "RA_OF_ASC_NODE": 351.1433,
    "ARG_OF_PERICENTER": 13.7535,
    "MEAN_ANOMALY": 346.3894,
    "EPHEMERIS_TYPE": 0,
    "CLASSIFICATION_TYPE": "U",
    "NORAD_CAT_ID": 58700,
    "ELEMENT_SET_NO": 999,
    "REV_AT_EPOCH": 13528,
    "BSTAR": 0.00022016979,
    "MEAN_MOTION_DOT": 0.00005762,
    "MEAN_MOTION_DDOT": 0
   }
  },
  {
   "norad": 58701,
   "name": "TIANMU-1 16",
   "intl": "2024-004B",
   "group": "weather",
   "gcat": {
    "class": "B",
    "category": "MET",
    "owner": "TIANMU",
    "state": "CN"
   },
   "omm": {
    "OBJECT_NAME": "TIANMU-1 16",
    "OBJECT_ID": "2024-004B",
    "EPOCH": "2026-06-13T22:36:17.432352",
    "MEAN_MOTION": 15.26719025,
    "ECCENTRICITY": 0.00061647,
    "INCLINATION": 97.4608,
    "RA_OF_ASC_NODE": 350.3725,
    "ARG_OF_PERICENTER": 19.0021,
    "MEAN_ANOMALY": 341.1447,
    "EPHEMERIS_TYPE": 0,
    "CLASSIFICATION_TYPE": "U",
    "NORAD_CAT_ID": 58701,
    "ELEMENT_SET_NO": 999,
    "REV_AT_EPOCH": 13528,
    "BSTAR": 0.00022806935,
    "MEAN_MOTION_DOT": 0.00005921,
    "MEAN_MOTION_DDOT": 0
   }
  },
  {
   "norad": 58702,
   "name": "TIANMU-1 17",
   "intl": "2024-004C",
   "group": "weather",
   "gcat": {
    "class": "B",
    "category": "MET",
    "owner": "TIANMU",
    "state": "CN"
   },
   "omm": {
    "OBJECT_NAME": "TIANMU-1 17",
    "OBJECT_ID": "2024-004C",
    "EPOCH": "2026-06-13T22:15:20.467008",
    "MEAN_MOTION": 15.26718227,
    "ECCENTRICITY": 0.00058391,
    "INCLINATION": 97.4636,
    "RA_OF_ASC_NODE": 350.8417,
    "ARG_OF_PERICENTER": 25.1858,
    "MEAN_ANOMALY": 334.9664,
    "EPHEMERIS_TYPE": 0,
    "CLASSIFICATION_TYPE": "U",
    "NORAD_CAT_ID": 58702,
    "ELEMENT_SET_NO": 999,
    "REV_AT_EPOCH": 13527,
    "BSTAR": 0.0002311078,
    "MEAN_MOTION_DOT": 0.00006,
    "MEAN_MOTION_DDOT": 0
   }
  },
  {
   "norad": 58703,
   "name": "TIANMU-1 18",
   "intl": "2024-004D",
   "group": "weather",
   "gcat": {
    "class": "B",
    "category": "MET",
    "owner": "TIANMU",
    "state": "CN"
   },
   "omm": {
    "OBJECT_NAME": "TIANMU-1 18",
    "OBJECT_ID": "2024-004D",
    "EPOCH": "2026-06-13T23:16:29.849088",
    "MEAN_MOTION": 15.26976971,
    "ECCENTRICITY": 0.00043532,
    "INCLINATION": 97.4653,
    "RA_OF_ASC_NODE": 351.1376,
    "ARG_OF_PERICENTER": 25.4101,
    "MEAN_ANOMALY": 334.7351,
    "EPHEMERIS_TYPE": 0,
    "CLASSIFICATION_TYPE": "U",
    "NORAD_CAT_ID": 58703,
    "ELEMENT_SET_NO": 999,
    "REV_AT_EPOCH": 13528,
    "BSTAR": 0.00021198824,
    "MEAN_MOTION_DOT": 0.0000554,
    "MEAN_MOTION_DDOT": 0
   }
  },
  {
   "norad": 58660,
   "name": "TIANMU-1 19",
   "intl": "2023-208A",
   "group": "weather",
   "gcat": {
    "class": "B",
    "category": "MET",
    "owner": "TIANMU",
    "state": "CN"
   },
   "omm": {
    "OBJECT_NAME": "TIANMU-1 19",
    "OBJECT_ID": "2023-208A",
    "EPOCH": "2026-06-13T22:55:00.679008",
    "MEAN_MOTION": 15.31530617,
    "ECCENTRICITY": 0.00040636,
    "INCLINATION": 97.4503,
    "RA_OF_ASC_NODE": 281.2379,
    "ARG_OF_PERICENTER": 342.7871,
    "MEAN_ANOMALY": 17.3232,
    "EPHEMERIS_TYPE": 0,
    "CLASSIFICATION_TYPE": "U",
    "NORAD_CAT_ID": 58660,
    "ELEMENT_SET_NO": 999,
    "REV_AT_EPOCH": 13683,
    "BSTAR": 0.00028451684,
    "MEAN_MOTION_DOT": 0.00008587,
    "MEAN_MOTION_DDOT": 0
   }
  },
  {
   "norad": 58661,
   "name": "TIANMU-1 20",
   "intl": "2023-208B",
   "group": "weather",
   "gcat": {
    "class": "B",
    "category": "MET",
    "owner": "TIANMU",
    "state": "CN"
   },
   "omm": {
    "OBJECT_NAME": "TIANMU-1 20",
    "OBJECT_ID": "2023-208B",
    "EPOCH": "2026-06-13T22:19:02.455392",
    "MEAN_MOTION": 15.32721403,
    "ECCENTRICITY": 0.00062856,
    "INCLINATION": 97.4444,
    "RA_OF_ASC_NODE": 281.8447,
    "ARG_OF_PERICENTER": 347.1099,
    "MEAN_ANOMALY": 12.9982,
    "EPHEMERIS_TYPE": 0,
    "CLASSIFICATION_TYPE": "U",
    "NORAD_CAT_ID": 58661,
    "ELEMENT_SET_NO": 999,
    "REV_AT_EPOCH": 13692,
    "BSTAR": 0.00027764619,
    "MEAN_MOTION_DOT": 0.000087,
    "MEAN_MOTION_DDOT": 0
   }
  },
  {
   "norad": 58662,
   "name": "TIANMU-1 21",
   "intl": "2023-208C",
   "group": "weather",
   "gcat": {
    "class": "B",
    "category": "MET",
    "owner": "TIANMU",
    "state": "CN"
   },
   "omm": {
    "OBJECT_NAME": "TIANMU-1 21",
    "OBJECT_ID": "2023-208C",
    "EPOCH": "2026-06-13T22:09:18.202176",
    "MEAN_MOTION": 15.35025297,
    "ECCENTRICITY": 0.00062116,
    "INCLINATION": 97.4503,
    "RA_OF_ASC_NODE": 284.5044,
    "ARG_OF_PERICENTER": 337.6264,
    "MEAN_ANOMALY": 22.4707,
    "EPHEMERIS_TYPE": 0,
    "CLASSIFICATION_TYPE": "U",
    "NORAD_CAT_ID": 58662,
    "ELEMENT_SET_NO": 999,
    "REV_AT_EPOCH": 13706,
    "BSTAR": 0.00028911313,
    "MEAN_MOTION_DOT": 0.0000975,
    "MEAN_MOTION_DDOT": 0
   }
  },
  {
   "norad": 58663,
   "name": "TIANMU-1 22",
   "intl": "2023-208D",
   "group": "weather",
   "gcat": {
    "class": "B",
    "category": "MET",
    "owner": "TIANMU",
    "state": "CN"
   },
   "omm": {
    "OBJECT_NAME": "TIANMU-1 22",
    "OBJECT_ID": "2023-208D",
    "EPOCH": "2026-06-13T22:27:14.393664",
    "MEAN_MOTION": 15.31017754,
    "ECCENTRICITY": 0.000353,
    "INCLINATION": 97.4499,
    "RA_OF_ASC_NODE": 281.1572,
    "ARG_OF_PERICENTER": 16.1237,
    "MEAN_ANOMALY": 344.0116,
    "EPHEMERIS_TYPE": 0,
    "CLASSIFICATION_TYPE": "U",
    "NORAD_CAT_ID": 58663,
    "ELEMENT_SET_NO": 999,
    "REV_AT_EPOCH": 13683,
    "BSTAR": 0.00027421892,
    "MEAN_MOTION_DOT": 0.00008142,
    "MEAN_MOTION_DDOT": 0
   }
  },
  {
   "norad": 58297,
   "name": "UMBRA-07",
   "intl": "2023-174AT",
   "group": "sar",
   "gcat": {
    "class": "B",
    "category": "IMG-R",
    "owner": "UMBRA",
    "state": "US"
   },
   "omm": {
    "OBJECT_NAME": "UMBRA-07",
    "OBJECT_ID": "2023-174AT",
    "EPOCH": "2026-06-13T17:22:33.237120",
    "MEAN_MOTION": 15.09072766,
    "ECCENTRICITY": 0.00047059,
    "INCLINATION": 97.3793,
    "RA_OF_ASC_NODE": 220.6171,
    "ARG_OF_PERICENTER": 96.3431,
    "MEAN_ANOMALY": 263.8334,
    "EPHEMERIS_TYPE": 0,
    "CLASSIFICATION_TYPE": "U",
    "NORAD_CAT_ID": 58297,
    "ELEMENT_SET_NO": 999,
    "REV_AT_EPOCH": 14289,
    "BSTAR": 0.00061926017,
    "MEAN_MOTION_DOT": 0.00009757,
    "MEAN_MOTION_DDOT": 0
   }
  }
 ]
}
